id,name,country,city,street,postal_code
712,BRP - R&D,Canada,Valcourt,565 rue de la Montagne,J0E 2L0
1168,Laserax Inc.,Canada,Québec,101-2811 Watt Ave,G1X 4S8
1194,OSI Machinerie,Canada,Saint-Georges,"2510, 98e Rue",G6A 1E4
482,ArcelorMittal,Canada,Contrecoeur,2050 route des Aciéries,J0L 1C0
1050,Rio Tinto Aluminium Saguenay,Canada,Saguenay,1955 boulevard Mellon,G7S 3G7
6279,Groupe Meloche - Achats,Canada,Beauharnois,"925, rue du Caryer, bureau 201",J6N 0S6
1140,3045 - Pratt & Whitney Canada (R&D),Canada,Longueuil,"1000 Boulevard Marie-Victorin, Station J12",J4G 1A1
1227,GEC Aviation Inc,Canada,Bromont,2 Bd de l'Aéroport,J2L 1S6
5872,Avior - Montreal,Canada,Laval (13),1001 Desserte Nord Autoroute 440,H7L 3W3
655,Industries BRP Megatech,Canada,Shawinigan,"90, 28e Rue",G9T 5K7
655,BRP Megatech,Canada,Shawinigan,"90, 28e Rue",G9T 5K7
655,Kongsberg Automotive,Canada,Shawinigan,"90, 28e Rue",G9T 5K7
10083,Prysmian Group,Canada,Saint-Jérôme,800 Chem. de la Rivière du N,J7Y 5G2
6529,Avior - Laval,Canada,Laval (13),1001 Desserte Nord Autoroute 440,H7L 3W3
6279,Groupe Meloche - Achats 1,Canada,Beauharnois,"925, rue du Caryer, bureau 201",J6N 0S6
6279,Groupe Meloche - Raw Mat,Canada,Beauharnois,"925, rue du Caryer, bureau 201",J6N 0S6
388,The Lion Electric Company,Canada,Saint-Jérôme,921 Chemin de la Rivière du Nord,J7Y 5G2
923,3704 - Pratt & Whitney Canada - (TF),Canada,Longueuil,1000 Boulevard Marie-Victorin,J4G 1A1
657,CVTCORP,Canada,Sainte-Julie,"2101-N, Rue Nobel",J3E 1Z8
787,Quali-T-Group ULC,Canada,Bromont,66 rue Unifix,J2L1N5
12219,Hyco Canada,Canada,St-Wenceslas,1025 Rue Principale,G0Z 1J0
495,Exonetik. inc.,Canada,Sherbrooke,3500 Boul. Industriel,J1L 1V8
495,Exonetik,Canada,Sherbrooke,3500 Boul. Industriel,J1L 1V8
766,Xometry,United States,Gaithersburg,7940 Cessna Avenue,20879
306,MSB Expertise inc.,Canada,Boucherville,333-C Chemin du Tremblay,J4B 7M1
6373,Bateman Manufacturing,Canada,Springwater,5 Winstar Rd,L0L 2L0
1003,Abrigo industrial machines inc.,Canada,Brantford,"349, Henry street",N3S 7V6
293,DYNAMIC CONCEPT,Canada,Lac-Ministuk,"2400, rue Alexis-le-Trotteur",G7X 0J7
527,GRAD4 Production,Canada,Montréal,400 rue montfort,H3C 4A8
431,Camso,Canada,Magog,2633 MacPherson street,j1x 0e6
5456,Groupe Meloche - Offload,Canada,Salaberry-de-Valleyfield,491 Rue des Érables,J6T 6G3
705,Les Escalateurs Atlas,Canada,Saint-Hyacinthe,3175 boulevard Choquette,J2S 7Z8
186,Conception BHIND,Canada,Sherbrooke,Des pois de senteur,j1e 0l7
464,Vanguard Robotics Inc,Canada,Saint-Augustin-de-Desmaures,"15 rue de Rotterdam, Local 1",G3A 1S8
10116,Jamec Inc,Canada,Normandin,1144 Rue Lydoric Doucet,G8M5A6
389,Garier inc,Canada,Mirabel,"Mirabel , QC",J7J 0W4
988,Maverick Machine & Hydraulics,Canada,Mississauga,1633 Trinity Drive,L5T 1K4
301,Amrikart R.C. inc,Canada,Brossard,3605 rue Isabelle,J4Y 2R2
724,Charles Simon inc.,Canada,Montréal,"2019 rue Moreau, suite 100",H1W 2M1
910,École de Technologie Supérieure – Club RockÉTS,Canada,Montréal,"1100 Rue Notre Dame O, Montréal, QC",H3C 1K3
998,Machinerie Torrington,Canada,Brossard,"3705 Place Java, Unité 150",J4Y 0E4
420,Les Industries Fibrobec Inc.,Canada,BELOEIL,219,J3G 4N4
6286,Robsol - Achats,Canada,Laval,5200 Boulevard des Laurentides,H7K 2J8
632,servicemecanique jfg,Canada,l'islet,250 boulevard nilus leclerc,G0R 2C0
806,École de Technologie Supérieure - Enseignants,Canada,Montréal,450 Rue Eleanor,H3C 2E5
364,Adapt Solutions,Canada,Saint-Lambert-de-Lauzon,145 rue Damase-Breton,G0S 2W0
953,Vision Automation Inc.,Canada,Vaughan,"400 Zenway Boulevard, Unit 4",L4H 0S7
205,Revtech systèmes,Canada,Saint-Joseph de beauce,787 avenue guy poulin,G0S 2V0
520,Les Vergers Leahy Inc.,Canada,Franklin,"1772, Route 209",J0S 1E0
448,GRYB International Inc,Canada,VICTORIAVILLE,1400 BOUL. PIERRE-ROUX EST,G6T 2T7
353,Gorila Fitness,Canada,Saint-Pie,147 rue Saint-Pierre,J0H 1W0
279,CFM Robotique,Canada,Sherbrooke,"465, Rue Joseph-Latour",J1C 0W2
6286,Robsol,Canada,Laval (13),5200 Boulevard des Laurentides,H7K 2J8
449,Aesus Packaging,Canada,Pointe-Claire,188 Avenue Oneida,H9R 1A8
1315,Nfinite Nano,Canada,Wilmot,246 Lester Street,N2L 0H1
475,Mindcore,Canada,terrebonne,2425 Edouard-Michelin,J6Y 4P2
319,Multi-Modules Inc.,Canada,Louiseville,80 Ave St- Martin,J5V 1B4
618,DAO BE Inc,Canada,Montréal,880 rue Roy,H2L 1E6
1119,Drone Volt Canada Inc.,Canada,Laval (13),2816 Rue Joseph-A.-Bombardier,H7P 6E2
459,Dana Laval Technology Center,Canada,Boucherville,135 JA Bombardier,J4B 8P1
740,ATS Automation,Canada,Cambridge,730 Fountain Street North,N3H 4R7
956,Hydrep inc.,Canada,Lac-Ministuk,3560 Rue de l'Énergie,G7X 9H3
378,Carmen Design Inc.,Canada,Québec,4188 Côte de Cap-Rouge,G1Y 1V4
795,Stelpro,Canada,St-Bruno-de-Montarville,"1041, rue Parent",J3V 6L7
337,Projitech,Canada,Saint-Georges,"3500 boul. dionne ouest, suite 201",g5y 3y9
287,Exo Sled,Canada,Compton,"130, chemin Drouin",J0B 1L0
295,MCM Intégration Inc.,Canada,Montréal,"5151, avenue Louis-Hébert",H2G 3G8
401,Advanced Dynamics Corp.Ltd.,Canada,Saint-Bruno,1700 Marie-victorin,J3V 6B9
711,Jantz Canada,Canada,Grimsby,9-623 South Service Road,L3M 4E8
344,Mecfor Inc.,Canada,Saguenay,1788 rue Mitis,G7K 1H5
100,Cycles Devinci Inc,Canada,Saguenay,De La Manic,G7K 1G8
320,Boivin Évolution Inc.,Canada,Lévis,"420, 1re Avenue",G6W 5M6
340,Systemex Automation,Canada,Laval (13),4075 Boulevard Industriel,H7L 6E3
12349,Waterville TG,Canada,Waterville,10 Rue Dépôt,J0B 3H0
881,Calogy Solutions,Canada,Sherbrooke,4441 Boulevard Industriel,J1L 2S9
1052,Letenda,Canada,Longueuil,1262 Boulevard Sainte-Foy,J4K 1X6
188,Weighpack Systems Inc,Canada,Montréal,5605 Cypihot Street,H4S1R3
401,EPIQ - Advanced Dynamics Corp.Ltd.,Canada,Saint-Bruno,1700 Marie-victorin,J3V 6B9
216,Nuera Air,Canada,Laval (13),3695 desserte des laurentides,H7L 3H7
331,Dion-Ag,Canada,Boisbriand,429 Cote Sud,J7E 4H5
401,EPIQ - AD,Canada,Saint-Bruno,1700 Marie-victorin,J3V 6B9
3966,[D] Belron,Canada,Montreal,400 Rue Montfort,H3C 4J9
5960,Raymond Chabot Grant Thornton,Canada,Montréal,600 Rue De La Gauchetière O Bureau 2000,H3B 4L8
925,Mudwizard,Canada,Rouyn-noranda,1156 avenue Larivière,J9X 4K8
729,FTEX,Canada,Montréal,3955 Rue Saint-Jacques,H4C 1H9
256,Machitech,Canada,Lac-Jacques-Cartier,225 Blvd Bona-Dussault,G0A 4B0
10168,Laflamme Aero Inc,Canada,Saint-Joseph-de-Coleraine,Adresse : 134 Av. Saint-Patrick,G0N 1B0
471,Effman,Canada,Sherbrooke,410 rue Pépin,J1L 2Y8
201,M. Stainless,Canada,Laval (13),1575 Boul. St-Elzear O.,H7L 3N6
1262,Damper Technology Ltd Canada,Canada,Laval (13),2050 Bd Dagenais O,H7L 5W2
472,Équipement Off The Grid Inc.,Canada,saint-bruno-de-montarville,1815 rue du Bocage,j3v 4m7
280,novagrow,Canada,Montréal,3803 marcil,H4A 2Z5
628,Arteluthe,Canada,Montréal,9320 Saint-Laurent suite 308,H2N 1N7
245,BRP - Logistique,Canada,Lac-Brome,565 de la Montagne,J0E 2L0
559,Machineries Forget inc.,Canada,"Mont-Tremblant, Quebec",1313 Rue de Saint-Jovite,J8E 3J9
104,Elephantplay,Canada,Montréal,11800 Adolphe-Caron Avenue,H1E 7J3
730,Proto3000,Canada,Vaughan,6260 Highway 7 Unit 8,L4H 4G3
950,BRP - GIA,Canada,Valcourt,565 rue de la montagne,J0E 2L0
10168,Laflamme Aéro,Canada,Saint-Joseph-de-Coleraine,Adresse : 134 Av. Saint-Patrick,G0N 1B0
782,Spectra Premium Industries Inc.,Canada,Boucherville,1421 ampere,J4B 5Z5
510,c2mi,Canada,Bromont,45 boulevard de l'Aéroport,J2L 1S8
702,Forage FTE,Canada,Sherbrooke,5055 boul. Industriel,J1R 0P4
1077,Caminus,Canada,Sherbrooke,3276 Rue King E,J1E 3Y7
193,Creaform inc.,Canada,Lévis,4700 de la Pascaline,G6W 0L9
316,Les Outilleurs Arpex (Achats),Canada,Drummondville,565 des Ecoles,J2B 1J6
508,IND Group,Canada,Sherbrooke,410 rue Pépin,J1L 2Y8
709,Développement Effenco Inc.,Canada,Montréal,3700 Rue St-Patrick,H4E 1A2
952,Kesmac Inc.,Canada,Keswick,23324 Woodbine Avenue,L4P 0N1
524,Capamotion Inc.,Canada,Montréal,4710 Rue St Ambroise Local 136,H4C 2C7
228,Vention Inc,Canada,Montréal,suite 108,H4C 1L8
6531,Rotalec,Canada,Montréal,"5000 Bd Thimens, Saint-Laurent",H4R 2B2
10,TriStar Multicopters,Canada,Montréal,"400 Rue Montfort, Suite J-1270",H3C 4J9
164,CAE Healthcare,Canada,Montréal,8585 Chemin de la Côte-de-Liesse,H4T 1G6
1171,CVTech-AAB,Canada,Thetford Mines,3037 boulevard Frontenac,G6G 6P6
296,Conception RP inc.,Canada,Québec,"405, rue Gallilée",G1P 4M6
532,Cubrics,Canada,Shefford,59 RUE JOHN-ROBERTS,J2M 1P7
218,ELABORE,Canada,Sherbrooke,268 rue Aberdeen,J1H 1W5
267,Laurin Conteneur,Canada,Laval (13),"487, rue Principale",H7X 1C4
397,Conception Impack,Canada,St-Jacques,14 rue Marcel-Lépine,J0K 2R0
238,Lumen Pulse,Canada,Longueuil,1220 boulevard Marie-Victorin,J4G 2H9
563,Robotech Automatisation inc.,Canada,Longueuil,2168 rue de la Province,J4G 1R7
748,E2SENSE,Canada,Québec,111-1405 St-Jean-Baptiste,G2E 5K2
428,Domtar,Canada,Windsor,"609 rang 12, CP 1010",J1S 2L9
269,CGO Mécanique,Canada,Drummondville,"135 Rue Cockburn, , QC,",J2C 4L1
229,Cycles Devinci,Canada,Saguenay,1555 rue de la Manic,G7K 1G8
691,Foxtrot Industriel,Canada,Sherbrooke,3000 boulevard de l'Universite,J1K 0A5
855,Jet Automation,Canada,Mississauga,"7676 Kimbel St, Units 8-13",L5S 1J8
1033,dds Automated Machine Design,Canada,Cambridge,35 THOMPSON DR,N1T 2E4
994,DLL INC,Canada,Saint-Jean-sur-Richelieu,370 RUE SAINT-LOUIS,J3B 1Y4
1019,Wabi Iron & Steel,Canada,Unorganized West Timiskaming,330 Broadwood Ave.,P0J 1P0
523,SDC Bella Vista 3655 Jean-Gascon,Canada,Montréal,115-3655 rue Jean-Gascon,H4R 0K7
584,Elino Pool,Canada,Hawkesbury,"700, Main St W",K6A 2J3
669,Finkl Steel,Canada,Sorel-Tracy,100 McCarthy,J3R 3M8
613,Vic Mobilier de Magasin Inc.,Canada,Victoriaville,"1440, rue Notre-Dame Ouest",G6P 7L7
436,Robotiq,Canada,Lévis,"966 Chemin Olivier, Suite 500",G7A 2N1
360,ROBOVIC,Canada,Plessisville (ville),"10, rue Boulet",G6L 4M1
572,Matritech,Canada,Drummondville,850 Rocheleau,J2C 6Y5
601,Composite Air Design,Canada,Dorval,710 Ave. Lepine,H9P 1G2
490,Equiparc,Canada,Saint-Jean-sur-Richelieu,"1001, James-Brodie",J2X 0C1
545,Unisson Structures,Canada,St-Roch,"685, range de la riviere nord",J0K 3H0
349,Vallée,Canada,Lac-Jacques-Cartier,310 rue principale,G0A 380
608,Fuji Semec Inc.,Canada,Boucherville,"230, J.-A. Bombardier, Suite #1",J4B 8V6
188,WeighPack,Canada,Montréal,5605 Cypihot Street,H4S-1R3
347,Matrius Tech,Canada,Montréal,400 rue Montfort,H3C 4J9
1343,Gala Systems Inc,Canada,Saint-Hubert,"3185, 1ère Rue",J3Y 8Y6
238,Lumenpulse,Canada,Longueuil,1220 boulevard Marie-Victorin,J4G 2H9
239,Énergie Solutions Air,Canada,Sherbrooke,4141 Rue Comtois,J1L 1R7
383,Claret Canada,Canada,Boucherville,1400 joliot-curie,j4b 7l9
522,e-lab,Canada,Magog,790 Principale West st,J1X 2B3
733,IBIOM Instruments ltée,Canada,Sherbrooke,"670, Rue Joseph-Louis-Mathieu",J1R 0X3
936,Fourgons Leclair,Canada,Terrebonne,"31, rue Théodore-Viau",J6Y 0J8
515,La Brasserie Labatt Ltée,Canada,LASALLE,50 avenue Labatt,H8R 3E7
498,JM Chantal,Canada,SAINT-AGAPIT,1000 rue Industrielle,G0S 1Z0
557,Medical design,Canada,Boisbriand,3985 Rue Alfred Laliberté,J7H 1P7
1141,TOPMED,Canada,Québec,755 Grande Allee Ouest,G1S 1C1
537,MOS,Canada,Québec,255 rue Notre-Dame-Des-Anges,G1K 3E7
12267,Pratt&Whitney - Test Facilities Mississauga,Canada,Mississauga,1801 Courtneypark Dr E,L5T 1J3
542,Composites VCI,Canada,Saint-Lin–Laurentides,830 12e avenue,J5M 2V9
161,Motsai,Canada,Saint-Bruno,1395 Marie-Victorin,J3V 6B7
286,Stageline Mobile Stage Inc.,Canada,L'Assomption,827 Boulevard de l'Ange-Gardien,J5W 1T3
442,Tensio,Canada,Québec,875 BOUL CHAREST O SUITE 290,G1N 2C9
587,Prometek,Canada,Québec,"1005, av. Nordique",G1C 0C7
652,Cadence Automation,Canada,Ste-Thérèse,"50, boul. Sicard, local 100",J7E 5R1
366,Eagle Hydraulique Inc.,Canada,Mirabel,12055 rue Arthur-Sicard,J7J 0E9
720,AV&R,Canada,Saint-bruno-de-montarville,1203 Marie-victorin,J3V 6C3
1155,Ftex,Canada,Montréal,642 Rue De Courcelle,H4C 3C5
290,Prisma-Scène inc.,Canada,Longueuil,3750 Boul Losch,J3Y 5T6
1046,CVTCORP_Département_Approvisionnements,Canada,Sainte-Julie,"2101-N, Rue Nobel",J3E 1Z8
801,SmartD Technologies,Canada,Montréal,210 - 425 rue Guy,H3J 1S9
859,Circul-Aire Inc.,Canada,Montréal,3999 Cote Vertu,H4R 1R2
942,Design 1st,Canada,(Old) Ottawa,314 Athlone Ave,K1Z 5M4
351,AGT Robotics,Canada,Trois-Rivières,"8800 Boulevard Parent, , QC",G9A 5E1
1004,Lachute Performance,Canada,Brownsburg-Chatham,441 Route du N,J8G 1L5
317,Montebello Technology Services,Canada,Montréal,2700 Bld Jean-Baptiste Deschamps,H8T 1E1
582,Phaneuf International,Canada,Trois-Rivières,2005 Sidbec Sud,G8Z 4M6
458,Sim-K,Canada,Pointe-Claire,261 avenue Maclean,H9R 5Y1
487,Remorques Apogee,Canada,Saint-Roch-De-L'Achigan,519 J. Oswald-Forest unit #103,J0K 3H0
716,SIC Marking Canada,Canada,Boucherville,"35-2, rue De Lauzon",J4B 1E7
785,"2G Robotics, Inc.",Canada,Waterloo,"120 Randall Drive, Unit 1E",N2V 1C6
873,Les Industries Norjac inc.,Canada,Lévis,815 rue du Ferblantier,G6C 1W1
1145,Pro-Métal Plus Inc. - Achats,Canada,Lac-Jacques-Cartier,"12, Blvd. des Sources",G0A 1S0
738,Powerlace,Canada,Longueuil,"3275 1re Rue, Suite 7",J3Y 8Y6
15198,Groupe Meloche - Achats Indirects,Canada,Beauharnois,"925, rue du Caryer, bureau 201,",J6N 0S6
313,ACTI SOLUTIONS,Canada,Montréal,4035 rue saint ambroise,H4C 2E1
352,Moment Factory,Canada,Montréal,6250 AVENUE PARC,h2v 4h8
345,Amcor Flexibles Capsules Canada inc.,Canada,St-Césaire,2301 route 112,J0L 1T0
549,Structures Industrielles Premium Inc.,Canada,Québec,2345 Avenue Dalton local 150,G1P 3S3
708,Multisystème,Canada,Sainte-Julie,1999 Rue Nobel local 1,J3E 1Z7
673,Tow-Bii,Canada,Sherbrooke,465 rue Joseph-Latour,J1C 0W2
889,Rupico,Canada,Québec,255 rue Notre Dame des Anges,G1K 3E7
909,Linear Transfer Automation,Canada,Barrie,61 Rawson Ave,L4N 6E5
918,Capital Controls & Instrumentation,Canada,Ottawa,"1333 Michael Street, Unit 03",K1B 3M9
1142,Express Elevators & Lifts Inc.,,,,
1246,DeLight Company,Canada,Laval (13),205-1700 Desserte S. A440,H7S 2E7
1196,Foussier Canada Inc.,Canada,Montréal,486 Rue Sainte-Catherine Ouest,H3B 1A6
4053,Brash,Canada,Ottawa,168 Dalhousie Street,K1N 7C4
158,GRAD4 - Frédérik Plourde,Canada,Montréal,"400 Montfort, C-2140 C.P #9",H3C 4J9
1341,Serv-A Packaging,Canada,Laval (13),2870 Boul. Daniel-Johnson,H7P 5Z7
406,FABLAB Inc.,Canada,Montréal,"2050 rue Dandurand, sutie 102",H2G 1Y9
489,Gator Canada Usine,Canada,Sherbrooke,510 chemin du 4ème Rang,J1C 0J8
484,Bartech Machinery,Canada,Montréal,5900 rue Vanden Abeele,H4S 1R9
560,Girolift,Canada,St-Jacques,2708 Route 341,J0K 2R0
641,Usinage Villeneuve - Achats,Canada,Sainte-Anne-des-Plaines,"23, ch du Coteau",J0N 1H0
826,Speedway Packaging Machinery Inc.,Canada,Pickering,10 Gormley Industrial Ave,L0H 1G0
1051,Usimax - Achats,Canada,Saint-Georges,"1155, 98e Rue",G5Y 8J5
585,Capital Winch,Canada,Québec,635 rue du Nickel,G2N 0J9
622,Zero-C,Canada,Longueuil,800 Jean-Neveu,J4G 2M1
633,Enerquin,Canada,Montréal,5730 Place Turcot,H4C 1V8
678,SBQuantum,Canada,Sherbrooke,"400 rue Marquette, suite 143",J1H 1M4
643,NovoPower International Inc.,Canada,Montréal,"326 St.-Joseph Blvd. E, Suite 1",H2T 1J2
629,Lauzon Flooring,Canada,Papineauville,2101 côte des Cascades,J0V 1R0
800,Everest Signs,Canada,Toronto,70 Modern Road,M1R 3B6
817,Groupe Swagelok,Canada,Montréal,2425 Rue Halpern,H4S 1S3
912,PulÉTS,Canada,Montréal,1100 rue Notre-Dame Ouest,H3C 1K3
949,Prodevco,Canada,Vaughan,40 citron court,L4K 2P5
1002,Groupe FabForce - Achats,Canada,Québec,1043 Avenue Lapierre,G3E 1H8
937,Ventec Canada Inc.,Canada,Saint-Hyacinthe,4000 ave Pinard,J2R 1C3
1215,Crest_Tech(1),,,,
447,Paccar du Canada Ltée,Canada,Sainte-Thérèse,10 rue Sicard,J7E 4K9
504,Canada Billard & Bowling Inc,Canada,Laval (13),4050 boulevard Industriel,H7L 6C3
77,Brite4,Canada,Montréal,6600 rue hutchison,H2V 4E1
367,Luminator Technology Group,Canada,Lévis,1074 chemin Industriel,G7A 1B3
385,Mnubo,Canada,Montréal,4110 1751 rue richardson,H3K 1G6
452,Femtum,Canada,Québec,1405 boul Parc Technologique etage 2,G1P 4P5
562,Distomatic,Canada,Boucherville,1341 rue Newton local A,J4B 5H2
540,PT Mecanique inc.,Canada,Sherbrooke,4935 Boul Industriel,J1R 0P4
558,Solutions Modulex inc.,Canada,Montréal,"9200 Ave du Parc, 513",H2N 1Z4
857,Bron,Canada,Woodstock,873 Devonshire Avenue,N4S 8Z4
794,Sanexen services environnementaux Inc,Canada,Brossard,"9935, rue de Châteauneuf Entrée 1 – Bureau 200",J4Z 3V4
739,J2 gestion d'approvisionnement inc,Canada,Longueuil,790 rue bériault,J4G 1R8
681,Glascold Canada,Canada,Saint-Jean-sur-Richelieu,"875, Chemin des Ormes",J2Y 1C3
921,Spécialités RAD Inc.,Canada,Rivière-Mistassini,679 Rue Vaillancourt,G0W 1Z0
5873,Amylior,Canada,Vaudreuil-Dorion,3190 FX Tessier,J7V5V5
10110,Kinova,,,,
242,Ferndale Inc,Canada,Mirabel,"12045 Arthur-Sicard, Suite 500",J7J 0E9
38768,Optima Aero,Canada,Beloeil,1000 Rue Victor-Doré,J3G 0W5
189,Design & Realisation,Canada,Montréal,2620 Lapierre,H8N 2W9
307,Recyc PHP inc.,Canada,Drummondville,"2575-28A, Boul. St-Joseph",J2B 7V4
259,Source Oméga inc,Canada,Mirabel,"17 660, rue Charles suite 201",J7J 0C3
418,Soft dB,Canada,Québec,"1040 belvedere, suite 215",g1s 3g3
375,PIA Canada,Canada,Montréal,"7958 16e avenue , QC,  Canada",H1Z 3P5
566,Therio Innovation Inc.,Canada,Longueuil,3435 Bd Losch,J3Y 5T7
439,J.V. Maintenance inc,Canada,Saint-Sauveur,2330 Jean Adam,J0R 1R2
468,Animat,Canada,Sherbrooke,395 rue Rodolphe-Racine,J1R 0S7
525,DeLeaves,Canada,Sherbrooke,1263 rue Craig,J1H 4H2
576,Larochelle Equipement Inc.,Canada,Québec,"250, 2ème avenue",G1L 3A7
670,Emspec,Canada,Bois-des-Filion,904 Jacques-Paschini,J6Z 4W4
778,Tresca R&D,Canada,Montréal,1re Avenue,H1Y 3A4
746,AA Performance,Canada,Sherbrooke,3226 rue Alfred-Desrochers,J1K 3C6
753,Mailhot Industries,Canada,St-Jacques,"2721, 341 North road",J0K 2R0
790,Groupe Canam - Innovation,Canada,Boucherville,270 Chemin du Tremblay,J4B 5X9
503,Université de Sherbrooke,Canada,Sherbrooke,2500 boulevard de l'Université,J1K 2R1
1090,Technologie Element PSW INC,Canada,Val-d'Or,1117 rue des manufacturiers,J9P 6Y7
1091,Club Omer ETS,Canada,Montréal,511 rue Jean d'estrée,H3C 6T7
1195,O'Land,Canada,Montréal,1847 de Biencourt,H4E 1T6
1148,Laboratoire INIT,Canada,Montréal,1100 Rue Notre Dame O,H3C 1K3
12219,Hyco Canada,Canada,St-Wenceslas,1025 Rue Principale,G0Z 1J0
251,dalkotech,Canada,Sherbrooke,9330 boul Bourque,J1N 0G2
255,Proax Technologies,Canada,Laval (13),"3505, rue John-Pratt",H7P 0C9
294,Mechasys,Canada,Montréal,"400 Rue Montfort, J-2320",H3C 4J9
494,Enerserv,Canada,Granby,1067 Boul. Industriel,J2J 2B8
481,Altex Inc,Canada,Terrebonne,3530 boulevard des Entreprises,J6X 4J8
315,Virtual Front Desk,Canada,Montréal,302-3559 avenue Coloniale,H2X 2Y3
516,Createk / Université de Sherbrooke,Canada,Sherbrooke,3000 boul. Université - Pavillon P2,J1K 0A5
536,Systèmes BMH Inc.,Canada,SAINT BRUNO DE MONTARVILLE,1395 RUE RENE-DESCARTES,J3V 0B7
590,Adaptaide,Canada,Repentigny,448 Rue Bourque,J5Z 5A2
550,Remeq,Canada,Plessisville (ville),"391, rue St-Jean Batiste Nord",G6L 5G3
644,ROPTECH,Canada,Lavaltrie,206 AV DES PINS,J5T 1S8
634,Magnus,Canada,Boucherville,1271 Rue Ampère,J4B 5Z5
635,Ver-Mac,Canada,Québec,"1781, rue Bresse",G2G 2V2
671,D-cor,Canada,Montréal,"1901, rue Wellington",H3K 1W4
604,Plastiques Gagnon,Canada,Saint-Jean-Port-Joli,"117, de Gaspé Ouest",G0R 3G0
768,Thermo 2000,Canada,Québec,"500 9e Av, Richmond",J0B 2H0
789,Performance Solutions Inc.,Canada,Old Toronto,29 Basin St.,M4M 1A1
822,Aciers Solutions,Canada,Trois-Rivières,8295 Chemin Sainte-Marguerite,G9A 5C9
799,Industries Harnois,Canada,St-Thomas,1044 rue Principale,J0K 3L0
833,Can-Explore Inc.,Canada,Québec,875 Boulevards Charest Ouest,G1N 2C9
896,A&H Custom Machine,Canada,Burlington,919 Zelco Drive,L7L 4Y2
938,Descon,Canada,Newmarket,1-1274 Ringwell Drive,L3Y 9C7
908,CIF Metal,Canada,Thetford Mines,1900 Setlakwe,G6G 8B2
773,7 or 9 Design Studio,Canada,Montréal,555 Boulevard René-Levesque Ouest Bureau 1000,H2Z 1B1
974,Agence Carbure,Canada,Laval (13),1600 rue Cunard suite 200,H7S 2B2
979,Glissner,Canada,Waterloo,60 Bathurst Dr Unit 15,N2V 2A9
1080,M3béton,Canada,Montréal,5100 rue Eadie,H4E 4P2
1152,THORASYS Thoracic Medical Systems Inc.,Canada,Montréal,"6560 de l’Esplanade, Suite 103",H2V 4L5
1136,AON3D,Canada,Montréal,600-9494 boul st laurent,H2N 1P4
1330,MultiNautic,Canada,St-Sauveur,2330 ch. Jean-Adam,J0R 1R2
1244,WIDESCAPE,Canada,Chicoutimi,1876 BOULEVARD ST. PAUL CHICOUTIMI (QC),G7K 1C9
1286,Automatisation Grimard,Canada,Saguenay,830 Route de Tadoussac,G7H 5A8
672,Soucy Industriel,Canada,Rivière-du-Loup,"297, rue Témiscouata",G5R 2Y7
521,Groupe CLR,Canada,Trois-Rivières,7200 boul. Jean-XXIII,G9A 5C9
12092,Spinologics,Canada,Montréal,1100-4200 saint-laurent,H2W2R2
226,agrilog inc,Canada,Montréal,avenue charlemagne,h1x 2h3
931,KOVATERA,Canada,Greater Sudbury,240 Fielding Road,P3Y 1L6
1138,Lorik Tool & Automation Inc,,,,
1301,Campus 5 - P&WC,Canada,Longueuil,1000 Boulevard Marie-Victorin,J4G 1A1
1243,Rio Tinto Iron Ore Canada (IOC),Canada,Lac-Walker,1 rue Retty,G4R 3C7
1263,Ethnocare,Canada,Québec,191 rue Richelieu,G1R 4W3
986,Niigon Machines,Canada,Vaughan,370 New Enterprise Way,L4H 0S8
325,Trolec inc.,Canada,Longueuil,4700 Avenue Thibault,J3Y 0A8
282,THREEANGL,Canada,Laval (13),910 rue Drouin,H7X 2X4
386,Move Home Module,Canada,Ste-Julie,1950 rue Bombardier,J3E 2J9
379,Services E.D.A.P.I. Inc,Canada,Saint-Jérôme,2045 Boulevard du Curé-Labelle,J7Y 1S5
395,Nico Métal inc,Canada,Trois-Rivières,1005 rue du Père-Daniel,G9A 2W9
359,Biothermica,Canada,Montréal,426 Sherbrooke Est,H2L 1J6
338,groupe lame st-pierre,Canada,Montréal,7690 rue jarrt est,h1j 2m3
478,Asc Design,Canada,Québec,1865 A.R.  Decary,G1N 3Z8
363,Conceptromec inc.,Canada,Magog,1780 boul. Industriel,J1X 4V9
432,Groupe Océan,Canada,Québec,"105, Abraham-Martin, # 500",G1K 8N1
488,Sanexen,Canada,Montréal,9801 Rue la Martinière,H1C 1Z3
617,Sogenix,Canada,Chambly,929 Boul. Périgny,J3L 5H5
528,STAS Inc.,Canada,Saguenay,622 Rue des Actionnaires,G7J 5A9
591,Valmet,Canada,Trois-Rivières,3100 Westinghouse,G9A 5E1
630,La Fabrik Inox,Canada,VAUDREUIL-DORION,4390 rue Séguin,J7V 0K2
701,Dolbeau Oxygène,Canada,Dolbeau-Mistassini,303 8e Av,G8L 1Z6
699,IdCreation,Canada,Montréal,400 Rue Montfort,H3C 4A8
717,ISC Applied Systems,Canada,Pointe-Claire,290 Labrosse,H9R 6R6
291,Groupe Signalisation inc.,Canada,Sherbrooke,520 rue Pépin,J1L 2Y8
721,Raufoss Neuman,Canada,Boisbriand,4050 Rue Lavoisier,J7H 1R4
719,ABBE,Canada,Québec,"1851, avenue Yves Montreuil",G1E 3Z9
722,EMG Technologies Achats,Canada,Granby,639 Rue Laurent,J2G 8P4
1356,Festo,Canada,Québec,675 Rue du Carbone,G2N 2K7
809,The Wine Square,Canada,Delson,"10, rue Poissant",J5B 2J1
755,Tënzo,Canada,Beloeil,1318 Rue Louis-Marchand,J3G 6S3
788,EXO7,Canada,Sherbrooke,1190 Rue Edward-Rose,J1H 3G5
824,Dubois Agrinovation,Canada,Saint-Rémi,"478, Notre-Dame C.P. 3550",J0L 2L0
759,CGP Coating,Canada,Bromont,26 Boulevard de l'Aéroport,J2L 1S6
907,Groupe Carbonneau - Achat,Canada,Bromont,"26, Rue du Pacifique Est",J2L 1J5
944,Le Groupe Réfraco,Canada,Saguenay,1207 Rue Antonio Lemaire,G7K 1J2
1036,P.M.A Machining,Canada,Vaughan,"9 Israel Zilber Dr, Ontario",L6A 0H2
1048,Ferroglobe - Quebec Silicon L.P.,Canada,Trois-Rivières,6500 Rue Yvon Trudeau,G9H 2V8
993,Cooperative Exceldor,Canada,Saint-Bruno-de-Montarville,1081 rue Parent,J3V 6L7
977,Moldpro Machinery and Systems Inc.,Canada,Burlington,4042 Mainway,L7M 4B9
767,Polytechnique Montréal,Canada,Montréal,2500 Chemin de Polytechnique,H3T 1J4
15197,Valk's Machinery - Procurement,,,,
674,Ducharme Seating,Canada,Montréal,9275 Le royer,H1P 3H7
38413,VISION SYSTEMES CANADA INC - Safety-Tech,Canada,TERREBONNE,1086 rue des Forges,J6Y 0P6
693,Electron Metal,Canada,Laval (13),2180 Rue Michelin,H7L 5C3
38441,Pinacle Road Capital,Canada,Frelighsburg,96 chemin du Pinacle,J0J 1C0
38476,RDC CONTROL,Canada,Blainville,1100 Bd Michèle-Bohec,J7C 5N5
6536,Mosracks,,,,
154,Caron et Fils,Canada,Coaticook,4 Route 147,J1A 2S2
203,Les Produits Xtirpa,Canada,Granby,"1040, boul. Industriel",J2J 1A4
202,Contrôles RL,Canada,Laval (13),894 rue Berlier,H7L 4K5
314,911 Innovation,Canada,Montréal,200-7140 Albert Einstein,H4S 2C1
336,Prodomo inc.,Canada,Montréal,6190 Rue Notre Dame Ouest,H4C 1V4
350,Qualtech,Canada,Québec,1900 rue Léon-Harmel,G1N 4K3
410,COMACT,Canada,Saint-Georges,4000 40e Rue Ouest,G5Y 8G4
496,Gurit,Canada,Montréal,7562 Côte de Liesse,H4T 1E7
460,Philippe Léveillé Consultant,Canada,Montréal,7496-B Av Christophe-Colomb,H2R 2S7
324,E-Bag Inc.,Canada,Montréal,1322 notre-dame ouest,h3c 1k7
547,Orange Traffic,Canada,Mirabel,18195 rue J-A-Bombardier,J7J 0E7
398,Comité ZIP Côte-Nord du Golfe,Canada,Lac-Walker,"406, avenue Arnaud",G4R 3A9
529,Createk,Canada,Sherbrooke,3000 boul de l'Université,J1K 0A5
626,Pliages Nova,Canada,Salaberry-de-Valleyfield,2035 Joseph Armand Bombardier,J6T 6G4
676,Howmet Aerospace,Canada,Laval (13),5515 Ernest Cormier,H7C 2S9
658,12 en Cave,Canada,Montréal,"7755 Boulevard St-Laurent, Suite 201B",H2E 1X1
276,Metalware,Canada,Montréal,5735 Place Turcot,H4C 1V9
561,Morelli designers,Canada,Montréal,"433 rue Chabanel ouest, suite 1003",H2N 2J9
803,ER-Design,Canada,Montréal,400 Rue Montfort,H3C 4A8
805,N3 Technologies Inc.,Canada,Hamilton,36 Ditton Drive Units 3-5,L8W 0A9
775,Bewegen,Canada,Saint-Georges,9095 25e Avenue,G6A 1A1
798,University of Toronto,Canada,Old Toronto,27 King's College Circle,M5S 3G3
813,Vitrerie Nouvelle Vision,Canada,Saint-Colomban,652 Montée Filion,J5K 1E7
853,Feed Rite Automation,Canada,Burlington,3097 Mainway,L7M 1A1
906,Cargone,Canada,Laval (13),1974 Rue Notre-Dame-de-Fatima,H7G 4X8
904,Lambton Conveyor Ltd,Canada,Wallaceburg,102 Arnold Street,N8A 3P4
860,Automation Design & Installation,Canada,Hamilton,"390 Dewitt rd., Unit #3",L8E 4P6
900,Promech Enterprises Inc.,Canada,Burlington,5311 John Lucas Drive,L7L 6A8
955,Ranger Design Inc.,United States,Ontario,6377 Dean Pkwy,14519
1018,Brodmann Energy Saving Technologies Limited,Canada,Ottawa,"555 Legget Drive, Tower A, Suite 304",K2K 2X3
997,INO,Canada,Québec,2740 Einstein,G1P 4S4
1032,Rayonex Inc.,Canada,Longueuil,1200 rue Tremblay,J3Y 4B6
297,Trulite,Canada,Bois des filion,740 de la sablière,J6Z  4T7
1065,Nature Alu,Canada,La Baie,5353 Chemin Saint-Anicet,G7B 3N8
661,Allied Scientific Pro,Canada,Gatineau,815 Boulevard de la Carrière Office No.203,J8Y 6T4
1223,Horizon Precision,Canada,Fort Erie,580 Industrial Drive Unit 5,L2A 5M4
1328,Lab Improvements,Canada,Otonabee–South Monaghan,"2140 East Bank Drive, Office B107",K9J 7B8
732,Groupe Synetik Inc.,,,,
6531,Rolatec,Canada,Montréal,"5000 Bd Thimens, Saint-Laurent",H4R 2B2
743,Kongsberg Automotive - Willis,United States,Willis,300 South Cochran Street,77378
3966,[D] Kruger,Canada,Montreal,400 Rue Montfort,H3C 4J9
12364,UsinageRichelieuAchats,,,,
10093,Linkcofab,,,,
5001,Alliance Métal Québec,Canada,Montréal,201 Rue Jarry O,H2P 2R3
3966,[D] Groupe Océan,Canada,Montreal,400 Rue Montfort,H3C 4J9
938,Descon Conveyor,Canada,Newmarket,1-1274 Ringwell Drive,L3Y 9C7
292,BellatRx,Canada,Sainte-Anne-de-Bellevue,20655 Boul. Industriel,H9X 4B2
9990,Groupe LNA,Canada,Laval (région administrative),2292 Boul Industriel #207,H7S 1P9
38836,Servo Robot,,,,
683,Payfacto,Canada,Montréal,1 Place du Commerce Suite 402,H3E 1A2
198,Nesting Safe,Canada,Montréal,400 rue montfort,H3C 4J9
417,Demers Ambulances,Canada,Beloeil,28 Richelieu,J3G 4N5
400,Liard Industries,Canada,Joliette,1707 Lépine,J6E 4B7
371,Motion Composites,Canada,Saint-Roch-de l'Achigan,160 rue Armand-Majeau,J0K 3H0
459,Dana TM4,Canada,Boucherville,135 JA Bombardier,J4B 8P1
455,Soucy International Inc.,Canada,Drummondville,5450 RUE SAINT-ROCH SUD,J2C 6W3
564,Groupe LD,Canada,Saguenay,144 Boul St-Paul,G7J 3C5
623,Métaux Garo,Canada,Blainville,742 Boulevard Industriel Suite 111,J7C 3V4
596,Au Gré des Champs,Canada,Saint-Jean-sur-Richelieu,404 rang Saint-Édouard,J2X 5T9
656,Drainvac,Canada,Mont-Saint-Hilaire,"150, rue Brunet",J3H 0M6
631,MicroCreek Technology,Canada,Prévost,1606 Rue des Tangaras,J0R 1T0
639,Gravure Précision,Canada,Laval (13),34 Rue de la Pointe-Langlois,H7L 3M5
2,Default Buyer,Canada,Montréal,3105,H3S 1R3
727,CSTJ,Canada,Saint-Jérôme,"455, rue Fournier",J7Z 4V2
435,The Green Stop,Canada,Montréal,141 Ave President-Kennedy,H2X 3X8
456,RAKABOT Inc.,Canada,Laval (13),"3095 Desserte nord Autoroute Laval O, Suite 201",H7P 4W5
749,Avior Montreal obsolete,Canada,Montréal,380 montee de liesse,H4T 1N8
776,Amico,Canada,Richmond Hill,85 Fulton Way Richmond Hill,L4B 2N4
745,Omnirobotic,Canada,Laval (13),"2572 Boul le Corbusier, Laval, QC H7S 2K8",H7S 2K8
742,Cyclone Lighting,Canada,Terrebonne,2175 Boulevard des Entreprises,J6Y 1W9
750,ECOPAK,Canada,Lac-Brome,"9072, rue De La Montagne",J0E 2L0
751,MegaSecur,Canada,Victoriaville,"940 - A, boulevard Pierre Roux Est",G6T 2H6
880,Candock Inc.,Canada,Sherbrooke,"9441, boul. Bourque",J1N 0G2
899,Valley Blades Ltd.,Canada,Waterloo,435 Phillip Street,N2J 3Z9
827,Annexair,Canada,Montréal,5970 Boul Henri-Bourassa O,H4R 1W1
831,m3béton,Canada,Montréal,5100 rue Eadie,H4E 4P2
902,Transtex,Canada,Montréal,6200 Henri-Bourassa,H4R 1C3
885,Barrette Chapais,Canada,Rivière-Mistassini,"km 346, QC-113,",G0W 1H0
1025,OMP inc.,Canada,Québec,146 rue Bigaouette,G1K 4L2
1069,Kargo-EV,Canada,Alma,1540 Boulevard St Jude,G8B 3L4
1067,Enerkem,Canada,Montréal,1130 Sherbrooke Street West,H3A 2M8
1146,Macrodyne Technologies Inc.,Canada,Vaughan,311 Connie Crescent,L4K 5R2
1220,Solios,Canada,Montréal,1600 Rue Notre Dame O Office 202,H3J 1M1
1041,Vale Canada,Canada,Unorganized North Sudbury,18 Rink Street Copper Cliff,P0M 1N0
12196,Techo-Bloc,Canada,Longueuil,5255 Albert-Millichamp,J3Y8Z8
12364,Usinage Richelieu - Achats,,,,
15194,Otis Elevator,Canada,Montréal,"2069 Boulevard de Maisonneuve, APPT 4",H3H 1K9
38422,Synertrade,Spain,Madrid,-,28002
281,Custom Métal inc.,Canada,Montréal,7880 Transcanadienne local-B,H4T 1A5
361,Location Locketgo Inc.,Canada,Montréal,107 Louvain Ouest,H2N 1A4
303,Studio Clara Jorisch,Canada,Montréal,5090 Notre-Dame O,H4C 1T1
308,ISM Conseil,Canada,Saguenay,2-1481 de la Manic,G7K 1G8
376,devocean,Canada,Sherbrooke,410 Florence apt 4,J1H 2J7
480,PMI Structures,Canada,Rimouski,261 Avenue du Havre,G5M 0B3
362,Structuremarine,Canada,Montréal,12645 rue April,H1B 5P6
421,Cemar Electro,Canada,Montréal,1370 55th Ave,H8T 3J8
391,MMC Packaging,Canada,Laval (13),2030 Boulevard Dagenais O,H7L 5W2
514,MI Integration,Canada,Sherbrooke,3100,j1c 0j7
605,Équipement Benoit Rivard Inc.,Canada,QUÉBEC,"5415, rue Rideau",G2E 5V9
610,GE Renewable Energy Inc.,Canada,Brossard,5005 Boulevard Lapinière Suite 6000,J4Z 0N5
619,Rendac Automatisastion,Canada,Brossard,4100 matte,J4Y 2Z2
589,Biomomentum,Canada,Laval,970 Michelin,J7R 6Z1
667,Envirosciences.Tech Inc,Canada,Montéal-Est,"11345 Victoria Montréal-Est, App. 6",H1B 2N9
642,CvTech R&D,Canada,Drummondville,300 Rue Labonté,J2C 6X9
703,Metaltech,Canada,Laval (13),1735 boulevard Saint-Elzéard ouest,H7L 5B2
704,Grimard,Canada,Saguenay,"1235, rue Bersimis",G7K 1A4
715,Les Équipements Pierre-Paul Beaulieu inc.,Canada,Rimouski,314 Chemin Voyer,G0L 1B0
346,PLANIPHARM,Canada,Terrebonne,3554 Boul. Des Entreprises,J6X 4J8
821,SOLUTIONS ECOTIME INC,Canada,St-Constant,720 ST REGIS SUD,J5A 2E7
771,Design Kontrast,Canada,Breakeyville,84 rue des Samares,G0S 1E1
779,AXIOM AUTOMATION GROUP INC.,Canada,Barrie,F-142 COMMERCE PARK DRIVE,L4N 8W8
791,VL Motion Systems Inc.,Canada,Oakville,"212 Wyecroft Rd, #23",L6K 3T9
811,Just Engineering,Canada,St-Isidore de Laprairie,449 rang St-Simon,J0L 2A0
905,Omnifab - Achats,Canada,Louiseville,351 Avenue Dalcourt,J5V 1A6
850,Oxytech Industries,Canada,Georgetown,307 Armstrong Avenue,L7G 4X6
917,IED Inc.,Canada,Pickering,"1080 Brock Road, Unit 15",L1W 3H3
920,PackPro,Canada,Stoufville,10 Paisley Ln.,L4A 7X4
796,Skye Automation Inc.,Canada,Centre Hastings,"400 Front St. W., BLDG#1, U#3",K0K 3E0
1001,Lux Aerobot,Canada,Québec,2740 Einstein Street,G1P 4S4
1024,Dose Juice,Canada,Saint-Hyacinthe,4415 avenue Beaudry,J2S 8W2
1028,Taiga Motors,Canada,Montréal,2695 avenue dollard,H8N 2J8
1049,Sustema Inc.,Canada,Pointe-Claire,"172, Brunswick",H9R 5P9
1076,GBatteries,Canada,Ottawa,1431 Merivale Road,K2E 0B9
688,Centum Adetel,Canada,Montréal,3200 Guénette Saint-Laurent,H4S 2G5
1266,Conseil Fari Stalo inc.,Canada,Montréal,8165 rue du creusot,H1P 2A3
1268,CréaNovation inc.,Canada,Shefford,178 rue Schmuck,J2M 1P8
3966,[D] Airbus Atlantic,Canada,Montreal,400 Rue Montfort,H3C 4J9
666,Aciers Richelieu - Achats,Canada,Sorel-Tracy,190 Roi,J3P 4N5
666,Usinage Richelieu - Achats,Canada,Sorel-Tracy,190 Roi,J3P 4N5
5001,Hydro-Québec,Canada,Montréal,201 Rue Jarry O,H2P 2R3
580,BioAlert Solutions,Canada,Sherbrooke,"2650, Maximilien-Chagnon street, Suite 4",J1E 0M8
1088,ArcelorMittal LPC 02,Canada,Contrecoeur,2050 route des Aciéries,J0L 1C0
843,Biolift,Canada,Montréal,400 rue Monfort,H3C 4J9
141,Solutions G00 inc.,Canada,Montréal,1473 rue Rolland,h4h 2g7
235,Flare Systems,Canada,Montréal,400 Montfort,H3C 4A8
165,Pont Hercule,Canada,Montréal,1100 Notre Dame Ouest,H3C 1K3
215,CalibTech,Canada,Montréal,13105 Jean Grou,H1A 3N6
274,Concept Geebee,Canada,Sherbrooke,1150 rue Deschaillons,J1G 1X7
465,Effenco,Canada,Montréal,"3700, rue St-Patrick Suite 316",H4E 1A2
461,Groupe Hyperforme,Canada,Lévis,1250 Chemin de la Coopérative,G7A 1A1
541,Systems Norbec Inc,Canada,BOUCHERVILLE,97 DE VAUDREUIL,J4B 1K7
463,Groupe Polyalto - Achats,Canada,Québec,3825 rue Jean-Marchad,g2c 2j2
485,Wabtec,USA,Pittsburgh,30 Isabella Street,15212
257,Groupe Enviroquip Labrie,Canada,Lévis,175-B route Marie-Victorin,G7A 2T3
174,FDCcomposites,Canada,Saint-Jean-sur-Richelieu,45 chemin de l'aéroport,J3B 7B5
616,Sig.Num Preemptive Healthcare,Canada,Montréal,5109-1751 Rue Richardson,H3K 1G6
254,Bureau d'études coopératif,Canada,Montréal,7496B Av. Christophe-Colomb,H2R 2S7
583,Laiterie Lampron,Canada,Saint-Boniface,520 Ch St-Onge,G0X 2L0
577,ConceptParadesign,Canada,Québec,"1991 rue Cyrille-Duquet, suite 126",G1N 4K8
777,Hively,Canada,Montréal,441 de la Gauchetiere Est,H2L 2M7
934,Élabore,Canada,Sherbrooke,268 Aberdeen,J1H 1W5
1000,Timberland Equipment Ltd.,Canada,Woodstock,"459 Industrial Avenue Woodstock, P.O. Box 490",N4S 7Z2
967,Dimsy Inc,Canada,Laval (13),317 rue taillefer,H7X 2M1
984,Ora Médical Inc.,Canada,Montréal,"400 rue Montfort, local M-0230",H3C 4J9
970,Mechasys Inc.,Canada,Montréal,9200 Avenue du Parc,H2N 1Z4
1006,Rate,Canada,Oshawa,"1604, Pennel Drive, Oshawa, Suite",L1K 0J9
828,Plasticase,Canada,Terrebonne,1059 Boulevard des Entreprises,J6Y 1V2
1209,Optis engineering,Canada,Sherbrooke,4043 Rue Brodeur,J1L 1K4
1219,Les solutions horticoles HerbiaEra Inc.,Canada,Québec,2740 Rue Einstein,G1P 4S4
1187,Canmec - La Baie,Canada,La Baie,3453 Chemin des Chutes,G7B 3N8
1302,GrowClean Technology Corp,Canada,Longueuil,"1175 Rue-Notre-Dame-de-Grâces, app 1",J4J 3G1
1329,Favz,United States,Paris,"11 Rue Boyer, Au nom de Pelissier Jacquemet",75020
1304,Mesar Process Equipment,Canada,Montréal,9310 boul. des Sciences,H1J 3A9
1306,Bills Engineering,United States,Honolulu,"1124 Fort Street Mall, Suite 200",96813
1326,Raqtan,SA,Khobar,Khobar,11111
1325,University of Waterloo,Canada,Wilmot,200 University Ave W,N2L 3G1
6294,samiksha150804@gmail.com,United States,City of New York,cvvcvvcvcm,10005
6550,Rotalec,,,,
9863,Avior - Granby,Canada,Laval (13),1001 Desserte Nord Autoroute 440,H7L 3W3
5534,Bloop inch,United States,City of Albany,ba,12222
6539,BuyBackBooth,,,,
6534,Sotrem-Maltech,,,,
6540,Flexpipe - Achats,,,,
6538,Mekanisk 3D,Canada,Laval,820 19e Avenue,H7R 4P6
6554,Diane Letourneau Design,,,,
9862,Rousseau Métal,,,,
9982,De Havilland Canada,,,,
9983,Pyradia - Achats,,,,
9988,aerobombardier,,,,
9995,AMT Moulage,,,,
9996,Resfab,,,,
10010,Force Inox,,,,
10021,Boralex,,,,
10033,Artik Tech,,,,
10090,ISEQ,,,,
10114,Michelin,,,,
10118,Groupe LAR,,,,
10124,Siemens,,,,
12362,Palmex International,Canada,Saint-Sauveur,2518 Chem. des Entreprises,J0R 1R7
12363,Acier Lachine,Canada,Montreal,Montfort,H3C 4J9
12420,Roha Health Inc.,Canada,Calgary,4807 32nd Street SE,T2B2X3
9997,HKD,Canada,Boischatel,5780 Bd Sainte-Anne,G0A 1H0
10136,PropulsionQuebec,,,,
38285,Groupe Idénov,Canada,Sherbrooke,"3815,chemin St-Roch Sud",J1R 0H3
38301,ACCÈS,Canada,Laval,767 rue Daladier,H7X 2M1
10079,Corem,,,,
38368,Placeteco - Achats,Canada,quebec,montreal,h0h0h0
38307,Lion,Canada,Saint-Jérôme,921 Chem. de la Rivière du Nord,J7Y 5G2
6293,Cegep de Sherbrooke,,,,
10091,A G&G,,,,
38417,Inogec,Canada,Quebec,2215 rue robitaille,G1P 2M2
38421,Aluminerie Alouette Inc.,Canada,Sept-Iles,400 Chemin de la Pointe Noire,G4R 5M9
38421,Aluminerie_Alouette_Inc.,,,,
38304,Honey Bee Manufacturing,Canada,Laval,767 rue Daladier,H7X 2M1
38447,Groupe CFR,Canada,Montréal,"2069 Boulevard de Maisonneuve, APPT 4",H3H 1K9
38765,Sharp,Canada,Montreal,Test,h3v1s9
38441,PINACLE_ROAD_CAPITAL,,,,
38824,Mercedes-Benz AG,Canada,Bloomington,2680 E. 81st St. ,55425-1328
38834,https://arrowspeed.com/,Canada,East Angus,"189, Angus sud",J0B 1R0
38800,NOV Inc.,Canada,Montreal,630 rue Saint-Paul,H3C1L9
38831,Hamid,hamid,hamid,hamid,H4P0B3
9861,Montel,,,,
10080,Marmen,,,,
12365,Tréma,,,,
1109,Taiga Motors Inc,Canada,Montréal,2695 ave Dollard,H8N 2J8
1160,Technologies Mindcore inc.,Canada,Terrebonne,2425 Edouard-Michelin,J6Y 4P2
1296,Techvanage,United States,Menlo Park,"2nd floor, Amstor House, Technopark Campus, Thiruvananthapuram, Kerala 695581",94026
1327,Test fake hamid,Canada,Montréal,"2335 Chemin Manella, 517, buzzer code 94",H4P 0B3
1312,Ora Medical,Canada,Montréal,400 Rue Montfort,H3C 4J9
1284,Yo comp,United States,New York,Brunnenstr 39,10115
1300,Club Capra,Canada,Montréal,1125 rue william,H3C 1P7
1265,J1R 0P4,Canada,Sherbrooke,4935 Blvd. Industriel,J1R 0P4
969,Vanessa Henri,Canada,Montreal,17815 Rue Notre Da5445,J7J 2J2
6287,Emerio solutions,Canada,Sherbrooke,2412 rue raimbault,J1J2J6
6525,Métal Bernard Inc,,,,
6551,Amisco,,,,
6568,Attraction,,,,
5464,École de Technologie Supérieure,Canada,Montréal,511 Rue Jean d'Estrées,H3C 6T7
5527,168 Dalhousie Street,Canada,Ottawa,168 Dalhousie Street,K1N7C4
5531,Fillio,Canada,Québec,1830 Av De La Famille,G2G 1M6
6552,Gerpro Construction Inc.,,,,
6558,Laiterie de Coaticook,,,,
6559,QTG - Achats,,,,
6565,Milan Conception - Achats,,,,
5871,ASD,United states,asd,ASDASD,12311
6542,Chocolat Lamontagne,,,,
6549,Martin Dessert,,,,
5818,CAPSolar technologie Inc,Canada,Montreal,2163 place Etienne Brule,H2B 1Z3
9984,Industries Lemieux - Achats,,,,
9985,REEL COH Inc.,,,,
9989,Infasco,,,,
10018,SNC Lavalin,,,,
10082,Ascenseurs Maxi,,,,
10097,Alamos Gold Inc,,,,
10098,NSE Automatech - Achats,,,,
10101,Umano Médical,,,,
10102,Astec Industries,,,,
10108,Triotech,,,,
10113,Arbec,,,,
10120,Verbom-Achats,,,,
10123,Canadian Malartic,,,,
10126,Minerai Fer Québec,,,,
10127,Minotair,,,,
219,Cometal,Canada,Lévis,420 rue Dumais,G6W 6P2
220,Axion Technologies,Canada,Lévis,1074 chemin Industriel,G7A 1B3
217,HAXIO,Canada,Montréal,Montfort,H3C 4J9
196,Soucy Group,Canada,Drummondville,5450 St-Roch Street,J2B 6W3
221,Precision ADM,Canada,Winnipeg,Buffalo place,R3t 1l9
199,Brio Innovation,Canada,Laval (13),4480 rue Garand,H7L 5Z6
258,Camions et Remorques H.K.,Canada,Dorval,825 Avenue Avoca,H9P 1G4
263,Piscines et Spas Parco,Canada,Hawkesbury,700 Main St W,K6A 2J3
444,Gaudreau Environnement,Canada,Victoriaville,"365, Boul. Banaventure",G6P 6V7
462,RPrace performance,Canada,Saint-Isidore,100d rue du soudeur,G0S 2S0
248,Waybo,Canada,Mirabel,12950 rue Brault,J7J 0W4
182,Dicsa,Canada,st-bruno,1365 rue-marie victorin suite 1,j3v 6b7
211,Alto-Design,Canada,Montréal,"2600 william tremblay, suite 220",H1Y 3J2
571,Sparta Industriel,Canada,Mont-Valin,600 Rue des Artisans,G0V 1L0
726,Cintube - Achats,Canada,Montréal,333 Boul. St. Joseph,H8S 2K9
1059,ProjectManagementSample,,,,
793,Differential Productions Inc.,Canada,mont-royal,208 Chester Ave.,H3R 1W3
930,Videooh,Canada,Montréal,"4000 rue Saint-Ambroise, office 390",H4C 2C7
935,Boivin Évolution,Canada,Lévis,420 Avenue 1,G6W 5M6
954,Vision Automation limited,Canada,Vaughan,400 Zenway Blvd. Unit 400,L4H 0S7
919,Berg Chilling Systems Inc.,Canada,Toronto,51 Nantucket Boulevard,M1P 2N5
1027,Rahgun Technologies Pvt Ltd,Canada,FREDERICTON,614 kitchen street,E3B 3Z5
1363,Predimach,,,,
348,Digitech 3D inc.,Canada,Verchères,"11, Pierre-Boisseau",J0L 2R0
1073,KLIIN Organic Inc.,Canada,St-Mathieu-de-Beloeil,2105 Chemin de l'Industrie #103,J3G 0S3
1291,individual,Canada,Belleville,DURGESH COLONY,K8N 5W6
12207,Groupe Lauak,Canada,Mirabel,10200 Rue Irénée Vachon,J7N 3E3
5525,WorkbenchX,Australia,Perth,191 St.Georges Terrace,06000
4162,CMC Electronics Inc.,Canada,ST-LAURENT,600 DR. FREDERIK PHILIPS BLVD.,
15182,EBR Équipements,Canada,Laval,767 rue Daladier,H7X 2M1
1333,MR&C_3D_Usinage,,,,
15193,Alliance Métal Québec,Canada,Saint-Charles-Borromée,10 Rue Wilfrid Ranger,J6E 8M7
15197,Valksdo,,,,
15201,Granby Industries,Canada,Laval,767 rue Daladier,H7X 2M1
10143,Oneka Technologies,Canada,Sherbrooke,2365 rue Roy,J1K 1B9
15231,Atelier,Canada,Lac-Jacques-Cartier,30 rue de l'éternité,G0A 4G0
28612,Atelier Carcajou,Canada,Québec,255 rue Notre-Dame-des-Anges,G1K 3E7
9864,JL Leclerc,,,,
38433,EFT Mobility AG,Germany,Munchen,Agnes-Pockels-Bogen 1,80992
38439,MHIRJ,Canada,Boisbriand,"3655 Avenue des Grandes Tourelles, Suite 110",J7H 0E2
38451,Labonté Recrutement,Canada,Montréal,"400 Montfort, C-0120",H3C 4A8
38449,Développement PME,Canada,Montreal,400 Rue mon FORD,H3C4J9
38455,Pure Procurement,Canada,au dodo,c'est finis pour aujourdhui,h3vs81
38454,CIUSSS SLSJ,Canada,test,test,5619864859
38762,Groupe SEP,,,,
38766,TICO,Canada,Drummondville,1170 Boul. Lemire,J2C 7W6
38793,Vibrotech,Canada,Montréal,400 rue Montfort,H3C 4J9
38805,3377 - Pratt & Whitney Canada,Canada,monpoeal,po,p9o9o0
38809,Biscuits Leclerc,Canada,Montreal,"1000 St Jacques St,",H3C 1G7
38814,beRobox,Canada,au dodo,c'est finis pour aujourdhui,h3vs81
38826,Fre,Canada,Edwardsburgh/Cardinal,K0E 0B2,K0E 0B2
38850,Elmer's Manufacturing,Canada,Altona,9118 Hwy 30 North Box 908,R0G 0B0
184,Atara Equipment,Canada,Laval (13),Lite,H7E 4X8
192,IST Technologies,Canada,Laval (13),4160 Industriel Blvd.,H7L 6H1
163,Foursplines,Canada,Montréal,6300 av du Parc,h2v 4h8
6384,Pratt and Whitney Canada,Canada,Longueuil,1000 Boulevard Marie-Victorin,J4G 1A1
358,Zeal Motor inc.,Canada,Bromont,90 Boulevard de l'Aéroport,J2L 1S9
392,Réseau Trans-Al,Canada,Saguenay,1237 rue Manic,G7K 1A1
416,Conception Martin Leclerc (CML),Canada,Shefford,7 Rue Des Colombes,J2M 0A3
539,Le Boulot Vers,Canada,Montréal,4447 rue De Rouen,H1V 1H1
627,francis,Canada,Saint-Jean-sur-Richelieu,49 rue giroux,J2W 2E8
647,Spinologics Inc.,Canada,Montréal,"6750 Avenue de l'Esplanade, Office 290",H2V 1A2
33,LES EQUIPEMENTS PROCEPACK INC,Canada,TERREBONNE,"960, boul. Industriel",j6Y 1x1
807,Prodd,Canada,Québec,"53 rue d'Auteuil, porte 5",G1R 4C2
929,AM+ Technologies,Canada,Sherbrooke,2758 rue galt o.,J1K 2V8
927,Charl-Pol Inc.,Canada,La Baie,4653 Chemin St-Anicet,G7B 0J4
810,LabsCubed,Canada,Kitchener,151 Charles St W,N2G 1H6
1044,The Regional Municipality of York,Canada,Vaughan,8300 Keele St,L4K 2A5
973,GE Renewable Energy,Canada,Brossard,5005 Blv Lapiniere,J4Z 0N5
990,E. Hofmann Plastics Inc.,Canada,Orangeville,51 Centennial Road,L9W 3R1
976,(delete pls) Moldpro Machinery and Systems Inc.,Canada,Burlington,4042 Mainway,L7M 4B9
971,Stageline Scene Mobile Inc...,Canada,L'assomption,700 Marsolais,J5W 2G9
105,Linh-Chi Nguyen,Canada,Montréal,429-4885 Henri-Bourassa Ouest,H4L 0A5
214,Precifab Inc.,Canada,Montréal,1220 Montee de Liesse,H4S 1J4
1095,Tensiot,Canada,Québec,875 Charest Ouest,G1N 2C9
1150,Wajax,Canada,Québec,"2997 Av Watt, Québec",G1C 1A2
277,Grad40,Canada,Montréal,3488 che de la cote des neiges,H3H 2M6
535,GRAD4 Communications,Canada,Montréal,"3488 chemin de la cote des neiges, Apt 1012",H3H 2M6
1157,Kohinoor,Canada,Montréal,3494 Rue Jeanne Mance Apt 503,H2X 2K1
1104,Cargone inc.,Canada,Laval (13),1974 Notre-Dame-de-Fatima,H7G 4X8
1100,Rebecca Murdock,Canada,Montréal,6728 rue drolet,H2S 2T2
1186,Canmec - Chicoutimi,Canada,Saguenay,1750 La Grande,G7K 1H7
1242,Synergie Précision,Canada,St-Eustache,600 rue des Alyssums,J7P 5T9
926,Atelier d'usinage Poudrier,Canada,Victoriaville,137 rue Archibald-Campbell,G6P 2W2
1362,ASMI Achats,Canada,Alma,1600 Av. de la Technologie,G8C 0E1
6545,Rocky Mountain,,,,
6563,Groupe DCM - Achats,,,,
4225,Claridion,Canada,Lasalle,287 Marroni,H8R3S8
6569,Transherb,,,,
5961,Legault,Canada,Saint-Jérôme,Ajshjsjndnf,J7Z6R3
6541,Kruger,,,,
6560,Metal7,,,,
6543,CVT Corp - Achats,,,,
6555,Everest Automation,,,,
6561,Pedlex,,,,
9986,Aero Bombardier,,,,
10017,Fraco,,,,
10099,Micro Bird Inc,,,,
10119,Metosak,,,,
10125,Mesures Calib-Tech,,,,
10128,Tricentris,,,,
10134,Alstom,,,,
666,Acier Richelieu - Achats,Canada,Sorel-Tracy,190 Roi,J3P 4N5
12227,Investissement Québec,Canada,Montréal,"1001, boulevard Robert-Bourassa,  Suite 1000",H3B 0A7
10096,Pro-Pac,,,,
15199,ABB Group,Canada,Montréal,"400 Montfort, C-0120",H3C 4A8
15198,GroupeMelocheAchats,,,,
15204,Nemaska Lithium,Canada,Bécancour,"1580 boul. Port-Royal, bureau 250",G9H 1X6
511,Lainco,Canada,Terrebonne,"1010, Fernand-Poitras",J6Y 1V1
10088,Technosub,Canada,Rouyn-Noranda,1156 Av. Larivière,J9X4K8
38420,ANDRITZ_Hydro,,,,
38289,Factory Bucket,Canada,London,380 wellington street,N5X0M3
1324,Brp,Canada,Valcourt,841 Rue Cartier,J0E 2L0
38420,ANDRITZ Hydro,Canada,Pointe-Claire,6100 Trans-Canada Hwy,H9R 1B9
38452,M2S Électronique,Canada,Chicoutimi,359 Marie Rollet,G7K 1G8
38764,Takeuchi,Canada,Montreal,5586 rue charleroi,H3V 1C9
38779,Honey,,,,
38414,rilo,United States,TORONTO,"Pariser Straße, Berlin, Allemagne",33445
38813,ARA Robotics,Canada,Montréal,204-2260 Ave Aird,H1V 2W6
713,Airex Industries Inc.,Canada,Drummondville,"3025, rue Kunz",J2C 6Y4
38820,Enertec,Canada,Montréal,400 rue montfort,H3C 4A8
38819,CAE Inc.,Canada,test,test,8888899985
38851,Heavy Pumps,V3K 7C1,Coquitlam,1550 Brigantine Drive,Canada
29,Procepack,Canada,Terrebonne,"960 industriel,",J6Y 1X1
35,Wastack,Canada,Montréal,"1001, rue Lenoir, B-521",H4C 2Z6
213,ISI Controls,Canada,Montréal,4030 CHEMIN DU BOIS-FRANC,h4s 1a7
190,Multimodules,Canada,Louiseville,80 Ave St- Martin,J5V 1B4
241,Treebone Design,Canada,Montréal,6732 Jeanne-Mance,H2V 4L3
185,Entreprises L.M.,Canada,Montréal,3006 RUE SAINTE CATHERINE EST,H1W 2B8
1078,Brampton Precision Parts Inc (DO),,,,
284,Les Industries Intercept inc.,Canada,Laval (13),75 Bld des Prairies,H7N 2T2
339,Canimex Inc - Achats,Canada,Drummondville,285 rue Saint-George,J2C 4H3
492,Qualipieces,Canada,Drummondville,2075 joseph st cyr,j2c 0b9
31,Puzzle Medical Devices,Canada,Montréal,"14-400 rue Montfort, Suite C0160",H3C 4J9
312,Diacarb (Achats),Canada,Montréal,2525 Place de Miniac,H4S 1E5
261,Stace,Canada,Saint-Augustin,75 rue d’Anvers,G3A 1S5
285,MOULES CP,Canada,Boucherville,1241 Rue Graham-Bell,J4B 6A1
479,Julien Inc,Canada,Québec,955 rue Lachance,G1P 2H3
586,Structures Chartrand,Canada,Prévost,532 versant du ruisseau,J0R 1T0
638,SIEGES DUCHARME,Canada,Montréal,9275,H1P 3H7
3,Not active,Canada,Montréal,3105,H3S 1R3
731,Consultant RB2 Inc,Canada,Boucherville,911 Rue Anne-Le Moyne,J4B 3S7
247,E-Nov Conseil,Canada,Québec,255 rue Notre-Dame-des-Anges,G1K 3E7
823,SharkTank Digital Inc,Canada,Mississauga,5800 Ambler Drive Suite 210,L4W 4J4
819,Alco-TMI Fabrication Inc.,Canada,Alma,"995, avenue Bombardier",G8B 6H2
808,Qualified3D,United States,Southfield,"21415 Civic Center Dr, Ste 100",48076
895,Beckner and Son's Ltd.,Canada,South Huron,"72415 London Rd, Hensall",N0M 1X0
890,Adventec Manufacturing Inc.,Canada,Hamilton,55 Innovation Dr,L9H 7L8
964,Mecademic Robotics,Canada,Montréal,1300 Saint-Patrick St.,H3K 1A4
999,Sakaw,Canada,Pointe-Claire,880 Avenue Selkirk,H9R 3S3
1008,Beverly Hills,United States,Beverly Hills,123 Main St,90210
825,Narval,Canada,Lévis,7596 rue de la sarcelle,G6X 3S8
1066,rafale@etsmtl.ca,Canada,Montréal,1100 rue Notre-Dame Ouest,H3C 1K3
792,IQ-CRIQ MONTREAL,Canada,Montréal,"1201, boulevard Crémazie Est, bureau 1.210",H2M 0A6
1218,CODES Gestion inc,Canada,Québec,121 rue des merles,G1E 5M5
1289,Les Équipements récréatifs Jambette,Canada,Lévis,"700, rue des calfats, Lévis",G6Y 9E6
1316,Glacies Technologies,Canada,Sherbrooke,"165 rue wellington nord, suite 10",J1H 5B9
6562,Niedner,,,,
5533,Maker,United States,Marysville,1100 N 16th St,66508
4054,hydrep,Canada,Jonquière,3560 rue de l'énergie,G7X 9H3
5524,Scepter inc.,Canada,Saguenay,2030 Chemin de la Réserve,G7J 0E1
6546,Dals,,,,
6535,Ventec,,,,
6547,TAO DESIGNS LLC,,,,
9980,Robotfly,,,,
10016,Alcoa,,,,
10020,E.S. FOX LIMITED,,,,
10022,Dormakaba,,,,
10084,Ivaco Rolling Mills,,,,
10094,Fives Group,,,,
10100,Machinex,,,,
10111,Tekni-Plex,,,,
10112,Railveyor,,,,
10116,Jamec-Achats,,,,
10121,Sollum Technologies,,,,
10122,Hitachi Energy,,,,
271,Groupe Canam,Canada,Laval (13),"807, rue Marshall, bureau 100",H7S 1J9
15200,HKD Snowmakers,Canada,Lac-Jacques-Cartier,"5780 Bd Sainte-Anne, Boischatel",G0A 1H0
453,Tetra Tech,Canada,Saguenay,3251 boulevard st-françois,G7T 1A1
38282,Provisur,United States,Mokena,9150 191st Street,60448
10138,AeroMontreal,Canada,Montréal,"380, Saint-Antoine street West, suite 3120",H2Y 3X7
15230,Bombardier_FMP,,,,
9865,Tenco,,,,
38298,Manufacturiers & Exportateurs du Québec (MEQ),Canada,Montréal,507 Pl. d'Armes bureau 950,H2Y 2W8
6522,PCP aluminium,Canada,Saguenay,905 rue de l'inovation,G7B3N8
38299,Galland Henning Nopak,United States,Franklin,10179 S 57th St,53132
10086,MDA,Canada,Ste-Anne-Bellevue,"21025, autoroute Transcanadienne",H9X 3R2
38305,Ingreda trading,Canada,Delta,11967 80 ave,V4C0E2
38411,Coractive,Canada,Laval,767 rue Daladier,H7X 2M1
38419,ABC Company,Canada,Winnipeg,34 Lakewood Blvd,R2J 2M6
10016,Alcoa Inc.,Canada,Deschambault,1 Bd des Sources,G0A 1S0
38435,Electron,Canada,Laval (région administrative),2180 Rue Michelin,H7L 5C3
38450,C2.0,Canada,Montréal,24 Mont-Royal Avenue West,H2T2S2
38768,Optima,Canada,Beloeil,1000 Rue Victor-Doré,J3G 0W5
784,Cristal Controls,Canada,Québec,"2025 Lavoisier, suite 135",G1N 4L6
38479,Fournier Industries,Canada,Montreal,12345,h3v1c88
38418,Rovibec,Canada,Nicolet,475 Rte du Port,J3T 1W3
15204,Nemaska_Lithium,,,,
38439,MHI RJ AVIATION ULC,Canada,Boisbriand,"3655 Avenue des Grandes Tourelles, Suite 110",J7H 0E2
101,Presental Inc,Canada,Saint-Charles-de-Bellechasse,2695 ave Royale,G0R 2T0
27,Dyze Design,Canada,Longueuil,1505 rue saint-thomas suite 100,J4P 3S2
212,Canada Métal Nord-Amérique,Canada,Montréal,"8271, rue Lafrenaie",H1P 2B1
834,Open Benchtable,Canada,Montréal,-,H3C 1Z5
209,Expo Rénovation,Canada,Plessisville (ville),40 rue Saint-Pierre,G6L 5A9
288,Airgomig,Canada,Montréal,"2642, rue Diab",H4S 1E8
265,Polytechnique de Montréal,Canada,Montréal,"C.P. 6079, succ. Centre-ville",H3C 3A7
289,Sanicart,Canada,Montréal,123 à confirmer,h1h 1h1
260,Storcan,Canada,Châteauguay (Québec),"108, Bélanger",J6J 4Z2
273,AutomaTech Robotik,Canada,St-Apollinaire,"134, rue Industrielle",G0S 2E0
246,Groupe Delom,Canada,Montréal,13065 Rue Jean Grou,H1A 3N6
341,Machinerie Lico,Canada,Saint-Georges,9550 10e Av parc industriel,G5Y 8J8
512,Vamcorp,Canada,SALABERRY-DE-VALLEYF,635 BOUL DES ERABLES,J6T 6G3
615,iotan,Canada,Montréal,2012 rue Masson,H2H 1A6
611,Jostar,Canada,Brossard,4005 bienvenue,J4Z 2Y5
665,asdsad,Canada,Montréal,323 sdnsa,H2J 3J4
728,OMERS Ventures,Canada,Toronto,5 Almayo Crescent,M9V 2L3
588,Safari Condo,Canada,Adstock,810 rue du parc,G0N 1P0
781,PBSC,Canada,Longueuil,1120 Boulevard Marie-Victorin,J4G 2H9
754,Produits Naturels ika Inc.,Canada,Laval (13),910 rue Drouin,H7X 2X4
863,Revive Performance,Canada,Area C (Chilako River/Nechako),5953 Hastings,V2N 5J9
598,Centiped,Canada,Montréal,"1000 Rue Saint-Jacques, Montréal, QC",H3C 1G7
945,sdwd,Canada,Québec,444 444,G1S 3E9
1035,Atelier TechnoFab,Canada,Dunham,2555 rue saguenay,J0E 1M0
234,M1 Composites Technologie,Canada,Laval (13),"2460, Michelin Laval, Quebec,",H7L 5C3
1017,Laboratoire PULÉTS - ÉTS,Canada,Montréal,1100 rue Notre-Dame Ouest,H3C 1K3
4223,Predimach Achats,Canada,Princeville,"860, Route 116",G6L 5L6
1233,Manufactor,Canada,Montréal,790 Rue William,H3G 2A4
1221,[Obsolete] Rio Tinto,Canada,Saguenay,1955 Boul. Mellon,G7S 4L2
1288,MindCore Technologies,Canada,Terrebonne,2425 bl. Édouard Michelin,J6Y 4P2
1281,ABC Dust Technologies Corp,Canada,Québec,2740 Rue Einstein,G1P 4S4
1310,Space Concordia,Canada,Montréal,1455 Boul. de Maisonneuve Ouest H-965,H3G 1M8
2541,"GMW Group, Inc.",Canada,Senneville,20425 Avenue Clark-Graham,H9X 3T5
3966,Industries Acadiennes,Canada,Montreal,400 Rue Montfort,H3C 4J9
6533,Set47 - Achats,,,,
6557,Regitex,,,,
6564,Usinatech - Achats,,,,
6553,Simard Suspensions,,,,
6548,Silver Clear,,,,
6566,Mercier Industries - Achats,,,,
6537,Inno Box,,,,
6567,Lumen,,,,
10019,Ontario Power Generation,,,,
10035,CMP Advanced Mechanical Solutions,,,,
10078,Combustion Expert,,,,
10081,Jalarue,,,,
10092,Sotecma,,,,
10095,Cascades,,,,
10103,Groupe Ocean,Canada,Québec,105 #500 rue Abraham Martin,G1K 8N1
10115,Motrec,,,,
10117,Magnor,,,,
10137,Vulcain-Achats,,,,
15192,Vétérinov,Canada,Laval,767 rue Daladier,H7X 2M1
15193,Allianceme,,,,
15198,Groupe Meloche - Achats,Canada,Beauharnois,"925, rue du Caryer, bureau 201,",J6N 0S6
15197,Valks's Machinery - Procurement,,,,
12210,FABRI MEKA,,,,
15198,Groupe Meloche - Achats 2,Canada,Beauharnois,"925, rue du Caryer, bureau 201,",J6N 0S6
38283,BRP MEGATECH,Canada,Shawinigan,90 28e Rue,G9T 3P8
38295,Sonaca Montréal - Achats,Canada,Mirabel,13075 Brault,J7J 1P3
38298,Manufacturiers_&_ExportateurS_du_Québec_(MEQ),,,,
38302,EB Équipements,Canada,Montreal,200,H3H2M8
12351,Industek,Canada,Victoriaville,"200, rue François-Bourgeois",G6T 2G8
6544,Dispomed Ltée,Canada,Joliette,745 nazaire-laurin,J6E0L6
38433,EFTMobilityAG,,,,
38461,Mitsubishi Laser,Canada,chicoutimi,1123 rue Lorenzo-Genest,g7h 6p6
38481,Calvary_Robotics,United States,Webster,855 Publishers Pkwy,14580
38481,Calvary Robotics,United States,Webster,855 Publishers Pkwy,14580
38762,Groupe_SEP,,,,
12090,EPIQ Machinery,,,,
38834,Arrow Speed Controls,Canada,East Angus,"189, Angus sud",J0B 1R0
12295,Fornirama,Canada,Montréal,9100 Bd Maurice-Duplessis,H1E 7C2
38462,Latesys Canada,Canada,Brossard,3605 Rue Isabelle,J4Y 2R2
10141,Litostroj Hydro Inc.,,,,
